{"type": "FeatureCollection", "features": [ {"type": "Feature", "properties": {"norad_id": 32430, "name": "FENGYUN 1C DEB", "group": "fengyun-1c-debris", "lat": -58.95103037635151, "lon": 32.071724443887476, "alt_km": 815.4137450252074, "timestamp": "2025-12-19T04:59:48.592361+00:00", "meta": {"OBJECT_NAME": "FENGYUN 1C DEB", "OBJECT_ID": "1999-025DAS", "EPOCH": "2025-12-16T07:10:52.270176", "MEAN_MOTION": 13.70149446, "ECCENTRICITY": 0.03697498, "INCLINATION": 98.6973, "RA_OF_ASC_NODE": 14.7052, "ARG_OF_PERICENTER": 260.516, "MEAN_ANOMALY": 95.4026, "EPHEMERIS_TYPE": 0, "CLASSIFICATION_TYPE": "U", "NORAD_CAT_ID": 32430, "ELEMENT_SET_NO": 999, "REV_AT_EPOCH": 91252, "BSTAR": 0.0015817232, "MEAN_MOTION_DOT": 2.216e-05, "MEAN_MOTION_DDOT": 0}, "tle": {"line1": "1 32430U 99025DAS 25350.29921609  .00002216  00000+0  15817-2 0  9994", "line2": "2 32430  98.6973  14.7052 0369749 260.5160  95.4026 13.70149446912527"}}, "geometry": {"type": "Point", "coordinates": [32.071724443887476, -58.95103037635151]}}, {"type": "Feature", "properties": {"norad_id": 32432, "name": "FENGYUN 1C DEB", "group": "fengyun-1c-debris", "lat": -67.72808808565253, "lon": -171.31059753687944, "alt_km": 625.3668299841984, "timestamp": "2025-12-19T04:59:48.592372+00:00", "meta": {"OBJECT_NAME": "FENGYUN 1C DEB", "OBJECT_ID": "1999-025DAU", "EPOCH": "2025-12-18T08:00:01.375200", "MEAN_MOTION": 14.5255086, "ECCENTRICITY": 0.01725767, "INCLINATION": 98.1705, "RA_OF_ASC_NODE": 28.3731, "ARG_OF_PERICENTER": 288.3647, "MEAN_ANOMALY": 69.8848, "EPHEMERIS_TYPE": 0, "CLASSIFICATION_TYPE": "U", "NORAD_CAT_ID": 32432, "ELEMENT_SET_NO": 999, "REV_AT_EPOCH": 70776, "BSTAR": 0.0012473738, "MEAN_MOTION_DOT": 6.151e-05, "MEAN_MOTION_DDOT": 0}, "tle": {"line1": "1 32432U 99025DAU 25352.33334925  .00006151  00000+0  12474-2 0  9990", "line2": "2 32432  98.1705  28.3731 0172576 288.3647  69.8848 14.52550860707762"}}, "geometry": {"type": "Point", "coordinates": [-171.31059753687944, -67.72808808565253]}}, {"type": "Feature", "properties": {"norad_id": 32440, "name": "FENGYUN 1C DEB", "group": "fengyun-1c-debris", "lat": -58.37443217600418, "lon": 12.875834233247133, "alt_km": 1268.1615325939338, "timestamp": "2025-12-19T04:59:48.592382+00:00", "meta": {"OBJECT_NAME": "FENGYUN 1C DEB", "OBJECT_ID": "1999-025DBC", "EPOCH": "2025-12-12T07:47:51.906912", "MEAN_MOTION": 13.6125644, "ECCENTRICITY": 0.03219473, "INCLINATION": 99.1542, "RA_OF_ASC_NODE": 201.5922, "ARG_OF_PERICENTER": 91.933, "MEAN_ANOMALY": 271.871, "EPHEMERIS_TYPE": 0, "CLASSIFICATION_TYPE": "U", "NORAD_CAT_ID": 32440, "ELEMENT_SET_NO": 999, "REV_AT_EPOCH": 60280, "BSTAR": 0.0043210943, "MEAN_MOTION_DOT": 4.61e-05, "MEAN_MOTION_DDOT": 0}, "tle": {"line1": "1 32440U 99025DBC 25346.32490633  .00004610  00000+0  43211-2 0  9991", "line2": "2 32440  99.1542 201.5922 0321947  91.9330 271.8710 13.61256440602801"}}, "geometry": {"type": "Point", "coordinates": [12.875834233247133, -58.37443217600418]}}, {"type": "Feature", "properties": {"norad_id": 32447, "name": "FENGYUN 1C DEB", "group": "fengyun-1c-debris", "lat": -31.699447634734852, "lon": -176.43243481240384, "alt_km": 971.2236572017136, "timestamp": "2025-12-19T04:59:48.592392+00:00", "meta": {"OBJECT_NAME": "FENGYUN 1C DEB", "OBJECT_ID": "1999-025DBK", "EPOCH": "2025-12-09T20:22:18.261408", "MEAN_MOTION": 13.96013309, "ECCENTRICITY": 0.00800272, "INCLINATION": 98.9313, "RA_OF_ASC_NODE": 0.0649, "ARG_OF_PERICENTER": 49.1812, "MEAN_ANOMALY": 311.6255, "EPHEMERIS_TYPE": 0, "CLASSIFICATION_TYPE": "U", "NORAD_CAT_ID": 32447, "ELEMENT_SET_NO": 999, "REV_AT_EPOCH": 67838, "BSTAR": 0.00036340481, "MEAN_MOTION_DOT": 4.69e-06, "MEAN_MOTION_DDOT": 0}, "tle": {"line1": "1 32447U 99025DBK 25343.84882247  .00000469  00000+0  36340-3 0  9992", "line2": "2 32447  98.9313   0.0649 0080027  49.1812 311.6255 13.96013309678386"}}, "geometry": {"type": "Point", "coordinates": [-176.43243481240384, -31.699447634734852]}}, {"type": "Feature", "properties": {"norad_id": 32451, "name": "FENGYUN 1C DEB", "group": "fengyun-1c-debris", "lat": 16.962226615602834, "lon": -29.66626149600939, "alt_km": 1068.4633766817979, "timestamp": "2025-12-19T04:59:48.592402+00:00", "meta": {"OBJECT_NAME": "FENGYUN 1C DEB", "OBJECT_ID": "1999-025DBP", "EPOCH": "2025-12-15T17:47:04.547904", "MEAN_MOTION": 13.86588617, "ECCENTRICITY": 0.01851329, "INCLINATION": 99.9706, "RA_OF_ASC_NODE": 329.7162, "ARG_OF_PERICENTER": 187.005, "MEAN_ANOMALY": 172.8511, "EPHEMERIS_TYPE": 0, "CLASSIFICATION_TYPE": "U", "NORAD_CAT_ID": 32451, "ELEMENT_SET_NO": 999, "REV_AT_EPOCH": 61806, "BSTAR": 0.001782357, "MEAN_MOTION_DOT": 2.321e-05, "MEAN_MOTION_DDOT": 0}, "tle": {"line1": "1 32451U 99025DBP 25349.74102486  .00002321  00000+0  17824-2 0  9996", "line2": "2 32451  99.9706 329.7162 0185132 187.0050 172.8511 13.86588617618067"}}, "geometry": {"type": "Point", "coordinates": [-29.66626149600939, 16.962226615602834]}}, {"type": "Feature", "properties": {"norad_id": 32453, "name": "FENGYUN 1C DEB", "group": "fengyun-1c-debris", "lat": -59.14282710703033, "lon": -80.85681393852789, "alt_km": 918.1256449705452, "timestamp": "2025-12-19T04:59:48.592412+00:00", "meta": {"OBJECT_NAME": "FENGYUN 1C DEB", "OBJECT_ID": "1999-025DBR", "EPOCH": "2025-12-18T17:18:05.854176", "MEAN_MOTION": 14.02263669, "ECCENTRICITY": 0.00962849, "INCLINATION": 99.3722, "RA_OF_ASC_NODE": 262.5956, "ARG_OF_PERICENTER": 189.3908, "MEAN_ANOMALY": 170.5459, "EPHEMERIS_TYPE": 0, "CLASSIFICATION_TYPE": "U", "NORAD_CAT_ID": 32453, "ELEMENT_SET_NO": 999, "REV_AT_EPOCH": 93512, "BSTAR": 0.00039590538, "MEAN_MOTION_DOT": 5.85e-06, "MEAN_MOTION_DDOT": 0}, "tle": {"line1": "1 32453U 99025DBR 25352.72090109  .00000585  00000+0  39591-3 0  9994", "line2": "2 32453  99.3722 262.5956 0096284 189.3908 170.5459 14.02263669935123"}}, "geometry": {"type": "Point", "coordinates": [-80.85681393852789, -59.14282710703033]}}, {"type": "Feature", "properties": {"norad_id": 32455, "name": "FENGYUN 1C DEB", "group": "fengyun-1c-debris", "lat": 40.05698598111675, "lon": 17.097020228989347, "alt_km": 746.7069378160322, "timestamp": "2025-12-19T04:59:48.592422+00:00", "meta": {"OBJECT_NAME": "FENGYUN 1C DEB", "OBJECT_ID": "1999-025DBT", "EPOCH": "2025-12-15T19:17:51.115776", "MEAN_MOTION": 13.92483124, "ECCENTRICITY": 0.02358922, "INCLINATION": 101.7332, "RA_OF_ASC_NODE": 182.7306, "ARG_OF_PERICENTER": 137.6652, "MEAN_ANOMALY": 224.2971, "EPHEMERIS_TYPE": 0, "CLASSIFICATION_TYPE": "U", "NORAD_CAT_ID": 32455, "ELEMENT_SET_NO": 999, "REV_AT_EPOCH": 64458, "BSTAR": 0.0013497912, "MEAN_MOTION_DOT": 2.12e-05, "MEAN_MOTION_DDOT": 0}, "tle": {"line1": "1 32455U 99025DBT 25349.80406384  .00002120  00000+0  13498-2 0  9991", "line2": "2 32455 101.7332 182.7306 0235892 137.6652 224.2971 13.92483124644585"}}, "geometry": {"type": "Point", "coordinates": [17.097020228989347, 40.05698598111675]}}, {"type": "Feature", "properties": {"norad_id": 32456, "name": "FENGYUN 1C DEB", "group": "fengyun-1c-debris", "lat": 52.588179739220344, "lon": -25.70438749802441, "alt_km": 1095.6840899992858, "timestamp": "2025-12-19T04:59:48.592432+00:00", "meta": {"OBJECT_NAME": "FENGYUN 1C DEB", "OBJECT_ID": "1999-025DBU", "EPOCH": "2025-12-17T03:48:04.533120", "MEAN_MOTION": 13.35640436, "ECCENTRICITY": 0.03794971, "INCLINATION": 103.6656, "RA_OF_ASC_NODE": 133.0133, "ARG_OF_PERICENTER": 216.4895, "MEAN_ANOMALY": 140.98, "EPHEMERIS_TYPE": 0, "CLASSIFICATION_TYPE": "U", "NORAD_CAT_ID": 32456, "ELEMENT_SET_NO": 999, "REV_AT_EPOCH": 60675, "BSTAR": 0.0016364212, "MEAN_MOTION_DOT": 1.184e-05, "MEAN_MOTION_DDOT": 0}, "tle": {"line1": "1 32456U 99025DBU 25351.15838580  .00001184  00000+0  16364-2 0  9994", "line2": "2 32456 103.6656 133.0133 0379497 216.4895 140.9800 13.35640436606758"}}, "geometry": {"type": "Point", "coordinates": [-25.70438749802441, 52.588179739220344]}}, {"type": "Feature", "properties": {"norad_id": 32458, "name": "FENGYUN 1C DEB", "group": "fengyun-1c-debris", "lat": -41.28023440743073, "lon": -174.33789933610524, "alt_km": 711.0815420153276, "timestamp": "2025-12-19T04:59:48.592442+00:00", "meta": {"OBJECT_NAME": "FENGYUN 1C DEB", "OBJECT_ID": "1999-025DBW", "EPOCH": "2025-12-17T07:38:45.791520", "MEAN_MOTION": 14.62340298, "ECCENTRICITY": 0.00400557, "INCLINATION": 99.0455, "RA_OF_ASC_NODE": 11.634, "ARG_OF_PERICENTER": 359.8936, "MEAN_ANOMALY": 0.2248, "EPHEMERIS_TYPE": 0, "CLASSIFICATION_TYPE": "U", "NORAD_CAT_ID": 32458, "ELEMENT_SET_NO": 999, "REV_AT_EPOCH": 67856, "BSTAR": 0.0011308111, "MEAN_MOTION_DOT": 5.724e-05, "MEAN_MOTION_DDOT": 0}, "tle": {"line1": "1 32458U 99025DBW 25351.31858555  .00005724  00000+0  11308-2 0  9995", "line2": "2 32458  99.0455  11.6340 0040055 359.8936   0.2248 14.62340298678565"}}, "geometry": {"type": "Point", "coordinates": [-174.33789933610524, -41.28023440743073]}}, {"type": "Feature", "properties": {"norad_id": 32459, "name": "FENGYUN 1C DEB", "group": "fengyun-1c-debris", "lat": -17.960424883045764, "lon": -175.43756010434282, "alt_km": 623.1763673929736, "timestamp": "2025-12-19T04:59:48.592452+00:00", "meta": {"OBJECT_NAME": "FENGYUN 1C DEB", "OBJECT_ID": "1999-025DBX", "EPOCH": "2025-12-17T20:27:59.271840", "MEAN_MOTION": 14.4282892, "ECCENTRICITY": 0.02134957, "INCLINATION": 98.3021, "RA_OF_ASC_NODE": 5.9542, "ARG_OF_PERICENTER": 170.8776, "MEAN_ANOMALY": 189.6392, "EPHEMERIS_TYPE": 0, "CLASSIFICATION_TYPE": "U", "NORAD_CAT_ID": 32459, "ELEMENT_SET_NO": 999, "REV_AT_EPOCH": 94624, "BSTAR": 0.00036540002, "MEAN_MOTION_DOT": 1.555e-05, "MEAN_MOTION_DDOT": 0}, "tle": {"line1": "1 32459U 99025DBX 25351.85276935  .00001555  00000+0  36540-3 0  9995", "line2": "2 32459  98.3021   5.9542 0213495 170.8776 189.6392 14.42828920946246"}}, "geometry": {"type": "Point", "coordinates": [-175.43756010434282, -17.960424883045764]}}]}